<?xml version="1.0" encoding="UTF-8"?>
<kml xmlns="http://www.opengis.net/kml/2.2">
  <Document>
    <name>Benchmark Dataset (100 features)</name>
    <Placemark>
      <name>Polygon_0</name>
      <ExtendedData>
        <Data name="id"><value>0</value></Data>
        <Data name="category"><value>benchmark</value></Data>
      </ExtendedData>
      <Polygon>
        <outerBoundaryIs>
          <LinearRing>
            <coordinates>77.5,12.9,0 77.502,12.9,0 77.502,12.902000000000001,0 77.5,12.902000000000001,0 77.5,12.9,0</coordinates>
          </LinearRing>
        </outerBoundaryIs>
      </Polygon>
    </Placemark>
    <Placemark>
      <name>Polygon_1</name>
      <ExtendedData>
        <Data name="id"><value>1</value></Data>
        <Data name="category"><value>benchmark</value></Data>
      </ExtendedData>
      <Polygon>
        <outerBoundaryIs>
          <LinearRing>
            <coordinates>77.505,12.9,0 77.50699999999999,12.9,0 77.50699999999999,12.902000000000001,0 77.505,12.902000000000001,0 77.505,12.9,0</coordinates>
          </LinearRing>
        </outerBoundaryIs>
      </Polygon>
    </Placemark>
    <Placemark>
      <name>Polygon_2</name>
      <ExtendedData>
        <Data name="id"><value>2</value></Data>
        <Data name="category"><value>benchmark</value></Data>
      </ExtendedData>
      <Polygon>
        <outerBoundaryIs>
          <LinearRing>
            <coordinates>77.51,12.9,0 77.512,12.9,0 77.512,12.902000000000001,0 77.51,12.902000000000001,0 77.51,12.9,0</coordinates>
          </LinearRing>
        </outerBoundaryIs>
      </Polygon>
    </Placemark>
    <Placemark>
      <name>Polygon_3</name>
      <ExtendedData>
        <Data name="id"><value>3</value></Data>
        <Data name="category"><value>benchmark</value></Data>
      </ExtendedData>
      <Polygon>
        <outerBoundaryIs>
          <LinearRing>
            <coordinates>77.515,12.9,0 77.517,12.9,0 77.517,12.902000000000001,0 77.515,12.902000000000001,0 77.515,12.9,0</coordinates>
          </LinearRing>
        </outerBoundaryIs>
      </Polygon>
    </Placemark>
    <Placemark>
      <name>Polygon_4</name>
      <ExtendedData>
        <Data name="id"><value>4</value></Data>
        <Data name="category"><value>benchmark</value></Data>
      </ExtendedData>
      <Polygon>
        <outerBoundaryIs>
          <LinearRing>
            <coordinates>77.52,12.9,0 77.52199999999999,12.9,0 77.52199999999999,12.902000000000001,0 77.52,12.902000000000001,0 77.52,12.9,0</coordinates>
          </LinearRing>
        </outerBoundaryIs>
      </Polygon>
    </Placemark>
    <Placemark>
      <name>Polygon_5</name>
      <ExtendedData>
        <Data name="id"><value>5</value></Data>
        <Data name="category"><value>benchmark</value></Data>
      </ExtendedData>
      <Polygon>
        <outerBoundaryIs>
          <LinearRing>
            <coordinates>77.525,12.9,0 77.527,12.9,0 77.527,12.902000000000001,0 77.525,12.902000000000001,0 77.525,12.9,0</coordinates>
          </LinearRing>
        </outerBoundaryIs>
      </Polygon>
    </Placemark>
    <Placemark>
      <name>Polygon_6</name>
      <ExtendedData>
        <Data name="id"><value>6</value></Data>
        <Data name="category"><value>benchmark</value></Data>
      </ExtendedData>
      <Polygon>
        <outerBoundaryIs>
          <LinearRing>
            <coordinates>77.53,12.9,0 77.532,12.9,0 77.532,12.902000000000001,0 77.53,12.902000000000001,0 77.53,12.9,0</coordinates>
          </LinearRing>
        </outerBoundaryIs>
      </Polygon>
    </Placemark>
    <Placemark>
      <name>Polygon_7</name>
      <ExtendedData>
        <Data name="id"><value>7</value></Data>
        <Data name="category"><value>benchmark</value></Data>
      </ExtendedData>
      <Polygon>
        <outerBoundaryIs>
          <LinearRing>
            <coordinates>77.535,12.9,0 77.53699999999999,12.9,0 77.53699999999999,12.902000000000001,0 77.535,12.902000000000001,0 77.535,12.9,0</coordinates>
          </LinearRing>
        </outerBoundaryIs>
      </Polygon>
    </Placemark>
    <Placemark>
      <name>Polygon_8</name>
      <ExtendedData>
        <Data name="id"><value>8</value></Data>
        <Data name="category"><value>benchmark</value></Data>
      </ExtendedData>
      <Polygon>
        <outerBoundaryIs>
          <LinearRing>
            <coordinates>77.54,12.9,0 77.542,12.9,0 77.542,12.902000000000001,0 77.54,12.902000000000001,0 77.54,12.9,0</coordinates>
          </LinearRing>
        </outerBoundaryIs>
      </Polygon>
    </Placemark>
    <Placemark>
      <name>Polygon_9</name>
      <ExtendedData>
        <Data name="id"><value>9</value></Data>
        <Data name="category"><value>benchmark</value></Data>
      </ExtendedData>
      <Polygon>
        <outerBoundaryIs>
          <LinearRing>
            <coordinates>77.545,12.9,0 77.547,12.9,0 77.547,12.902000000000001,0 77.545,12.902000000000001,0 77.545,12.9,0</coordinates>
          </LinearRing>
        </outerBoundaryIs>
      </Polygon>
    </Placemark>
    <Placemark>
      <name>Polygon_10</name>
      <ExtendedData>
        <Data name="id"><value>10</value></Data>
        <Data name="category"><value>benchmark</value></Data>
      </ExtendedData>
      <Polygon>
        <outerBoundaryIs>
          <LinearRing>
            <coordinates>77.55,12.9,0 77.55199999999999,12.9,0 77.55199999999999,12.902000000000001,0 77.55,12.902000000000001,0 77.55,12.9,0</coordinates>
          </LinearRing>
        </outerBoundaryIs>
      </Polygon>
    </Placemark>
    <Placemark>
      <name>Polygon_11</name>
      <ExtendedData>
        <Data name="id"><value>11</value></Data>
        <Data name="category"><value>benchmark</value></Data>
      </ExtendedData>
      <Polygon>
        <outerBoundaryIs>
          <LinearRing>
            <coordinates>77.555,12.9,0 77.557,12.9,0 77.557,12.902000000000001,0 77.555,12.902000000000001,0 77.555,12.9,0</coordinates>
          </LinearRing>
        </outerBoundaryIs>
      </Polygon>
    </Placemark>
    <Placemark>
      <name>Polygon_12</name>
      <ExtendedData>
        <Data name="id"><value>12</value></Data>
        <Data name="category"><value>benchmark</value></Data>
      </ExtendedData>
      <Polygon>
        <outerBoundaryIs>
          <LinearRing>
            <coordinates>77.56,12.9,0 77.562,12.9,0 77.562,12.902000000000001,0 77.56,12.902000000000001,0 77.56,12.9,0</coordinates>
          </LinearRing>
        </outerBoundaryIs>
      </Polygon>
    </Placemark>
    <Placemark>
      <name>Polygon_13</name>
      <ExtendedData>
        <Data name="id"><value>13</value></Data>
        <Data name="category"><value>benchmark</value></Data>
      </ExtendedData>
      <Polygon>
        <outerBoundaryIs>
          <LinearRing>
            <coordinates>77.565,12.9,0 77.567,12.9,0 77.567,12.902000000000001,0 77.565,12.902000000000001,0 77.565,12.9,0</coordinates>
          </LinearRing>
        </outerBoundaryIs>
      </Polygon>
    </Placemark>
    <Placemark>
      <name>Polygon_14</name>
      <ExtendedData>
        <Data name="id"><value>14</value></Data>
        <Data name="category"><value>benchmark</value></Data>
      </ExtendedData>
      <Polygon>
        <outerBoundaryIs>
          <LinearRing>
            <coordinates>77.57,12.9,0 77.57199999999999,12.9,0 77.57199999999999,12.902000000000001,0 77.57,12.902000000000001,0 77.57,12.9,0</coordinates>
          </LinearRing>
        </outerBoundaryIs>
      </Polygon>
    </Placemark>
    <Placemark>
      <name>Polygon_15</name>
      <ExtendedData>
        <Data name="id"><value>15</value></Data>
        <Data name="category"><value>benchmark</value></Data>
      </ExtendedData>
      <Polygon>
        <outerBoundaryIs>
          <LinearRing>
            <coordinates>77.575,12.9,0 77.577,12.9,0 77.577,12.902000000000001,0 77.575,12.902000000000001,0 77.575,12.9,0</coordinates>
          </LinearRing>
        </outerBoundaryIs>
      </Polygon>
    </Placemark>
    <Placemark>
      <name>Polygon_16</name>
      <ExtendedData>
        <Data name="id"><value>16</value></Data>
        <Data name="category"><value>benchmark</value></Data>
      </ExtendedData>
      <Polygon>
        <outerBoundaryIs>
          <LinearRing>
            <coordinates>77.58,12.9,0 77.582,12.9,0 77.582,12.902000000000001,0 77.58,12.902000000000001,0 77.58,12.9,0</coordinates>
          </LinearRing>
        </outerBoundaryIs>
      </Polygon>
    </Placemark>
    <Placemark>
      <name>Polygon_17</name>
      <ExtendedData>
        <Data name="id"><value>17</value></Data>
        <Data name="category"><value>benchmark</value></Data>
      </ExtendedData>
      <Polygon>
        <outerBoundaryIs>
          <LinearRing>
            <coordinates>77.585,12.9,0 77.58699999999999,12.9,0 77.58699999999999,12.902000000000001,0 77.585,12.902000000000001,0 77.585,12.9,0</coordinates>
          </LinearRing>
        </outerBoundaryIs>
      </Polygon>
    </Placemark>
    <Placemark>
      <name>Polygon_18</name>
      <ExtendedData>
        <Data name="id"><value>18</value></Data>
        <Data name="category"><value>benchmark</value></Data>
      </ExtendedData>
      <Polygon>
        <outerBoundaryIs>
          <LinearRing>
            <coordinates>77.59,12.9,0 77.592,12.9,0 77.592,12.902000000000001,0 77.59,12.902000000000001,0 77.59,12.9,0</coordinates>
          </LinearRing>
        </outerBoundaryIs>
      </Polygon>
    </Placemark>
    <Placemark>
      <name>Polygon_19</name>
      <ExtendedData>
        <Data name="id"><value>19</value></Data>
        <Data name="category"><value>benchmark</value></Data>
      </ExtendedData>
      <Polygon>
        <outerBoundaryIs>
          <LinearRing>
            <coordinates>77.595,12.9,0 77.597,12.9,0 77.597,12.902000000000001,0 77.595,12.902000000000001,0 77.595,12.9,0</coordinates>
          </LinearRing>
        </outerBoundaryIs>
      </Polygon>
    </Placemark>
    <Placemark>
      <name>Polygon_20</name>
      <ExtendedData>
        <Data name="id"><value>20</value></Data>
        <Data name="category"><value>benchmark</value></Data>
      </ExtendedData>
      <Polygon>
        <outerBoundaryIs>
          <LinearRing>
            <coordinates>77.6,12.9,0 77.60199999999999,12.9,0 77.60199999999999,12.902000000000001,0 77.6,12.902000000000001,0 77.6,12.9,0</coordinates>
          </LinearRing>
        </outerBoundaryIs>
      </Polygon>
    </Placemark>
    <Placemark>
      <name>Polygon_21</name>
      <ExtendedData>
        <Data name="id"><value>21</value></Data>
        <Data name="category"><value>benchmark</value></Data>
      </ExtendedData>
      <Polygon>
        <outerBoundaryIs>
          <LinearRing>
            <coordinates>77.605,12.9,0 77.607,12.9,0 77.607,12.902000000000001,0 77.605,12.902000000000001,0 77.605,12.9,0</coordinates>
          </LinearRing>
        </outerBoundaryIs>
      </Polygon>
    </Placemark>
    <Placemark>
      <name>Polygon_22</name>
      <ExtendedData>
        <Data name="id"><value>22</value></Data>
        <Data name="category"><value>benchmark</value></Data>
      </ExtendedData>
      <Polygon>
        <outerBoundaryIs>
          <LinearRing>
            <coordinates>77.61,12.9,0 77.612,12.9,0 77.612,12.902000000000001,0 77.61,12.902000000000001,0 77.61,12.9,0</coordinates>
          </LinearRing>
        </outerBoundaryIs>
      </Polygon>
    </Placemark>
    <Placemark>
      <name>Polygon_23</name>
      <ExtendedData>
        <Data name="id"><value>23</value></Data>
        <Data name="category"><value>benchmark</value></Data>
      </ExtendedData>
      <Polygon>
        <outerBoundaryIs>
          <LinearRing>
            <coordinates>77.615,12.9,0 77.61699999999999,12.9,0 77.61699999999999,12.902000000000001,0 77.615,12.902000000000001,0 77.615,12.9,0</coordinates>
          </LinearRing>
        </outerBoundaryIs>
      </Polygon>
    </Placemark>
    <Placemark>
      <name>Polygon_24</name>
      <ExtendedData>
        <Data name="id"><value>24</value></Data>
        <Data name="category"><value>benchmark</value></Data>
      </ExtendedData>
      <Polygon>
        <outerBoundaryIs>
          <LinearRing>
            <coordinates>77.62,12.9,0 77.622,12.9,0 77.622,12.902000000000001,0 77.62,12.902000000000001,0 77.62,12.9,0</coordinates>
          </LinearRing>
        </outerBoundaryIs>
      </Polygon>
    </Placemark>
    <Placemark>
      <name>Polygon_25</name>
      <ExtendedData>
        <Data name="id"><value>25</value></Data>
        <Data name="category"><value>benchmark</value></Data>
      </ExtendedData>
      <Polygon>
        <outerBoundaryIs>
          <LinearRing>
            <coordinates>77.625,12.9,0 77.627,12.9,0 77.627,12.902000000000001,0 77.625,12.902000000000001,0 77.625,12.9,0</coordinates>
          </LinearRing>
        </outerBoundaryIs>
      </Polygon>
    </Placemark>
    <Placemark>
      <name>Polygon_26</name>
      <ExtendedData>
        <Data name="id"><value>26</value></Data>
        <Data name="category"><value>benchmark</value></Data>
      </ExtendedData>
      <Polygon>
        <outerBoundaryIs>
          <LinearRing>
            <coordinates>77.63,12.9,0 77.63199999999999,12.9,0 77.63199999999999,12.902000000000001,0 77.63,12.902000000000001,0 77.63,12.9,0</coordinates>
          </LinearRing>
        </outerBoundaryIs>
      </Polygon>
    </Placemark>
    <Placemark>
      <name>Polygon_27</name>
      <ExtendedData>
        <Data name="id"><value>27</value></Data>
        <Data name="category"><value>benchmark</value></Data>
      </ExtendedData>
      <Polygon>
        <outerBoundaryIs>
          <LinearRing>
            <coordinates>77.635,12.9,0 77.637,12.9,0 77.637,12.902000000000001,0 77.635,12.902000000000001,0 77.635,12.9,0</coordinates>
          </LinearRing>
        </outerBoundaryIs>
      </Polygon>
    </Placemark>
    <Placemark>
      <name>Polygon_28</name>
      <ExtendedData>
        <Data name="id"><value>28</value></Data>
        <Data name="category"><value>benchmark</value></Data>
      </ExtendedData>
      <Polygon>
        <outerBoundaryIs>
          <LinearRing>
            <coordinates>77.64,12.9,0 77.642,12.9,0 77.642,12.902000000000001,0 77.64,12.902000000000001,0 77.64,12.9,0</coordinates>
          </LinearRing>
        </outerBoundaryIs>
      </Polygon>
    </Placemark>
    <Placemark>
      <name>Polygon_29</name>
      <ExtendedData>
        <Data name="id"><value>29</value></Data>
        <Data name="category"><value>benchmark</value></Data>
      </ExtendedData>
      <Polygon>
        <outerBoundaryIs>
          <LinearRing>
            <coordinates>77.645,12.9,0 77.64699999999999,12.9,0 77.64699999999999,12.902000000000001,0 77.645,12.902000000000001,0 77.645,12.9,0</coordinates>
          </LinearRing>
        </outerBoundaryIs>
      </Polygon>
    </Placemark>
    <Placemark>
      <name>Polygon_30</name>
      <ExtendedData>
        <Data name="id"><value>30</value></Data>
        <Data name="category"><value>benchmark</value></Data>
      </ExtendedData>
      <Polygon>
        <outerBoundaryIs>
          <LinearRing>
            <coordinates>77.65,12.9,0 77.652,12.9,0 77.652,12.902000000000001,0 77.65,12.902000000000001,0 77.65,12.9,0</coordinates>
          </LinearRing>
        </outerBoundaryIs>
      </Polygon>
    </Placemark>
    <Placemark>
      <name>Polygon_31</name>
      <ExtendedData>
        <Data name="id"><value>31</value></Data>
        <Data name="category"><value>benchmark</value></Data>
      </ExtendedData>
      <Polygon>
        <outerBoundaryIs>
          <LinearRing>
            <coordinates>77.655,12.9,0 77.657,12.9,0 77.657,12.902000000000001,0 77.655,12.902000000000001,0 77.655,12.9,0</coordinates>
          </LinearRing>
        </outerBoundaryIs>
      </Polygon>
    </Placemark>
    <Placemark>
      <name>Polygon_32</name>
      <ExtendedData>
        <Data name="id"><value>32</value></Data>
        <Data name="category"><value>benchmark</value></Data>
      </ExtendedData>
      <Polygon>
        <outerBoundaryIs>
          <LinearRing>
            <coordinates>77.66,12.9,0 77.66199999999999,12.9,0 77.66199999999999,12.902000000000001,0 77.66,12.902000000000001,0 77.66,12.9,0</coordinates>
          </LinearRing>
        </outerBoundaryIs>
      </Polygon>
    </Placemark>
    <Placemark>
      <name>Polygon_33</name>
      <ExtendedData>
        <Data name="id"><value>33</value></Data>
        <Data name="category"><value>benchmark</value></Data>
      </ExtendedData>
      <Polygon>
        <outerBoundaryIs>
          <LinearRing>
            <coordinates>77.665,12.9,0 77.667,12.9,0 77.667,12.902000000000001,0 77.665,12.902000000000001,0 77.665,12.9,0</coordinates>
          </LinearRing>
        </outerBoundaryIs>
      </Polygon>
    </Placemark>
    <Placemark>
      <name>Polygon_34</name>
      <ExtendedData>
        <Data name="id"><value>34</value></Data>
        <Data name="category"><value>benchmark</value></Data>
      </ExtendedData>
      <Polygon>
        <outerBoundaryIs>
          <LinearRing>
            <coordinates>77.67,12.9,0 77.672,12.9,0 77.672,12.902000000000001,0 77.67,12.902000000000001,0 77.67,12.9,0</coordinates>
          </LinearRing>
        </outerBoundaryIs>
      </Polygon>
    </Placemark>
    <Placemark>
      <name>Polygon_35</name>
      <ExtendedData>
        <Data name="id"><value>35</value></Data>
        <Data name="category"><value>benchmark</value></Data>
      </ExtendedData>
      <Polygon>
        <outerBoundaryIs>
          <LinearRing>
            <coordinates>77.675,12.9,0 77.67699999999999,12.9,0 77.67699999999999,12.902000000000001,0 77.675,12.902000000000001,0 77.675,12.9,0</coordinates>
          </LinearRing>
        </outerBoundaryIs>
      </Polygon>
    </Placemark>
    <Placemark>
      <name>Polygon_36</name>
      <ExtendedData>
        <Data name="id"><value>36</value></Data>
        <Data name="category"><value>benchmark</value></Data>
      </ExtendedData>
      <Polygon>
        <outerBoundaryIs>
          <LinearRing>
            <coordinates>77.68,12.9,0 77.682,12.9,0 77.682,12.902000000000001,0 77.68,12.902000000000001,0 77.68,12.9,0</coordinates>
          </LinearRing>
        </outerBoundaryIs>
      </Polygon>
    </Placemark>
    <Placemark>
      <name>Polygon_37</name>
      <ExtendedData>
        <Data name="id"><value>37</value></Data>
        <Data name="category"><value>benchmark</value></Data>
      </ExtendedData>
      <Polygon>
        <outerBoundaryIs>
          <LinearRing>
            <coordinates>77.685,12.9,0 77.687,12.9,0 77.687,12.902000000000001,0 77.685,12.902000000000001,0 77.685,12.9,0</coordinates>
          </LinearRing>
        </outerBoundaryIs>
      </Polygon>
    </Placemark>
    <Placemark>
      <name>Polygon_38</name>
      <ExtendedData>
        <Data name="id"><value>38</value></Data>
        <Data name="category"><value>benchmark</value></Data>
      </ExtendedData>
      <Polygon>
        <outerBoundaryIs>
          <LinearRing>
            <coordinates>77.69,12.9,0 77.692,12.9,0 77.692,12.902000000000001,0 77.69,12.902000000000001,0 77.69,12.9,0</coordinates>
          </LinearRing>
        </outerBoundaryIs>
      </Polygon>
    </Placemark>
    <Placemark>
      <name>Polygon_39</name>
      <ExtendedData>
        <Data name="id"><value>39</value></Data>
        <Data name="category"><value>benchmark</value></Data>
      </ExtendedData>
      <Polygon>
        <outerBoundaryIs>
          <LinearRing>
            <coordinates>77.695,12.9,0 77.69699999999999,12.9,0 77.69699999999999,12.902000000000001,0 77.695,12.902000000000001,0 77.695,12.9,0</coordinates>
          </LinearRing>
        </outerBoundaryIs>
      </Polygon>
    </Placemark>
    <Placemark>
      <name>Polygon_40</name>
      <ExtendedData>
        <Data name="id"><value>40</value></Data>
        <Data name="category"><value>benchmark</value></Data>
      </ExtendedData>
      <Polygon>
        <outerBoundaryIs>
          <LinearRing>
            <coordinates>77.7,12.9,0 77.702,12.9,0 77.702,12.902000000000001,0 77.7,12.902000000000001,0 77.7,12.9,0</coordinates>
          </LinearRing>
        </outerBoundaryIs>
      </Polygon>
    </Placemark>
    <Placemark>
      <name>Polygon_41</name>
      <ExtendedData>
        <Data name="id"><value>41</value></Data>
        <Data name="category"><value>benchmark</value></Data>
      </ExtendedData>
      <Polygon>
        <outerBoundaryIs>
          <LinearRing>
            <coordinates>77.705,12.9,0 77.707,12.9,0 77.707,12.902000000000001,0 77.705,12.902000000000001,0 77.705,12.9,0</coordinates>
          </LinearRing>
        </outerBoundaryIs>
      </Polygon>
    </Placemark>
    <Placemark>
      <name>Polygon_42</name>
      <ExtendedData>
        <Data name="id"><value>42</value></Data>
        <Data name="category"><value>benchmark</value></Data>
      </ExtendedData>
      <Polygon>
        <outerBoundaryIs>
          <LinearRing>
            <coordinates>77.71,12.9,0 77.71199999999999,12.9,0 77.71199999999999,12.902000000000001,0 77.71,12.902000000000001,0 77.71,12.9,0</coordinates>
          </LinearRing>
        </outerBoundaryIs>
      </Polygon>
    </Placemark>
    <Placemark>
      <name>Polygon_43</name>
      <ExtendedData>
        <Data name="id"><value>43</value></Data>
        <Data name="category"><value>benchmark</value></Data>
      </ExtendedData>
      <Polygon>
        <outerBoundaryIs>
          <LinearRing>
            <coordinates>77.715,12.9,0 77.717,12.9,0 77.717,12.902000000000001,0 77.715,12.902000000000001,0 77.715,12.9,0</coordinates>
          </LinearRing>
        </outerBoundaryIs>
      </Polygon>
    </Placemark>
    <Placemark>
      <name>Polygon_44</name>
      <ExtendedData>
        <Data name="id"><value>44</value></Data>
        <Data name="category"><value>benchmark</value></Data>
      </ExtendedData>
      <Polygon>
        <outerBoundaryIs>
          <LinearRing>
            <coordinates>77.72,12.9,0 77.722,12.9,0 77.722,12.902000000000001,0 77.72,12.902000000000001,0 77.72,12.9,0</coordinates>
          </LinearRing>
        </outerBoundaryIs>
      </Polygon>
    </Placemark>
    <Placemark>
      <name>Polygon_45</name>
      <ExtendedData>
        <Data name="id"><value>45</value></Data>
        <Data name="category"><value>benchmark</value></Data>
      </ExtendedData>
      <Polygon>
        <outerBoundaryIs>
          <LinearRing>
            <coordinates>77.725,12.9,0 77.72699999999999,12.9,0 77.72699999999999,12.902000000000001,0 77.725,12.902000000000001,0 77.725,12.9,0</coordinates>
          </LinearRing>
        </outerBoundaryIs>
      </Polygon>
    </Placemark>
    <Placemark>
      <name>Polygon_46</name>
      <ExtendedData>
        <Data name="id"><value>46</value></Data>
        <Data name="category"><value>benchmark</value></Data>
      </ExtendedData>
      <Polygon>
        <outerBoundaryIs>
          <LinearRing>
            <coordinates>77.73,12.9,0 77.732,12.9,0 77.732,12.902000000000001,0 77.73,12.902000000000001,0 77.73,12.9,0</coordinates>
          </LinearRing>
        </outerBoundaryIs>
      </Polygon>
    </Placemark>
    <Placemark>
      <name>Polygon_47</name>
      <ExtendedData>
        <Data name="id"><value>47</value></Data>
        <Data name="category"><value>benchmark</value></Data>
      </ExtendedData>
      <Polygon>
        <outerBoundaryIs>
          <LinearRing>
            <coordinates>77.735,12.9,0 77.737,12.9,0 77.737,12.902000000000001,0 77.735,12.902000000000001,0 77.735,12.9,0</coordinates>
          </LinearRing>
        </outerBoundaryIs>
      </Polygon>
    </Placemark>
    <Placemark>
      <name>Polygon_48</name>
      <ExtendedData>
        <Data name="id"><value>48</value></Data>
        <Data name="category"><value>benchmark</value></Data>
      </ExtendedData>
      <Polygon>
        <outerBoundaryIs>
          <LinearRing>
            <coordinates>77.74,12.9,0 77.74199999999999,12.9,0 77.74199999999999,12.902000000000001,0 77.74,12.902000000000001,0 77.74,12.9,0</coordinates>
          </LinearRing>
        </outerBoundaryIs>
      </Polygon>
    </Placemark>
    <Placemark>
      <name>Polygon_49</name>
      <ExtendedData>
        <Data name="id"><value>49</value></Data>
        <Data name="category"><value>benchmark</value></Data>
      </ExtendedData>
      <Polygon>
        <outerBoundaryIs>
          <LinearRing>
            <coordinates>77.745,12.9,0 77.747,12.9,0 77.747,12.902000000000001,0 77.745,12.902000000000001,0 77.745,12.9,0</coordinates>
          </LinearRing>
        </outerBoundaryIs>
      </Polygon>
    </Placemark>
    <Placemark>
      <name>Polygon_50</name>
      <ExtendedData>
        <Data name="id"><value>50</value></Data>
        <Data name="category"><value>benchmark</value></Data>
      </ExtendedData>
      <Polygon>
        <outerBoundaryIs>
          <LinearRing>
            <coordinates>77.75,12.9,0 77.752,12.9,0 77.752,12.902000000000001,0 77.75,12.902000000000001,0 77.75,12.9,0</coordinates>
          </LinearRing>
        </outerBoundaryIs>
      </Polygon>
    </Placemark>
    <Placemark>
      <name>Polygon_51</name>
      <ExtendedData>
        <Data name="id"><value>51</value></Data>
        <Data name="category"><value>benchmark</value></Data>
      </ExtendedData>
      <Polygon>
        <outerBoundaryIs>
          <LinearRing>
            <coordinates>77.755,12.9,0 77.75699999999999,12.9,0 77.75699999999999,12.902000000000001,0 77.755,12.902000000000001,0 77.755,12.9,0</coordinates>
          </LinearRing>
        </outerBoundaryIs>
      </Polygon>
    </Placemark>
    <Placemark>
      <name>Polygon_52</name>
      <ExtendedData>
        <Data name="id"><value>52</value></Data>
        <Data name="category"><value>benchmark</value></Data>
      </ExtendedData>
      <Polygon>
        <outerBoundaryIs>
          <LinearRing>
            <coordinates>77.76,12.9,0 77.762,12.9,0 77.762,12.902000000000001,0 77.76,12.902000000000001,0 77.76,12.9,0</coordinates>
          </LinearRing>
        </outerBoundaryIs>
      </Polygon>
    </Placemark>
    <Placemark>
      <name>Polygon_53</name>
      <ExtendedData>
        <Data name="id"><value>53</value></Data>
        <Data name="category"><value>benchmark</value></Data>
      </ExtendedData>
      <Polygon>
        <outerBoundaryIs>
          <LinearRing>
            <coordinates>77.765,12.9,0 77.767,12.9,0 77.767,12.902000000000001,0 77.765,12.902000000000001,0 77.765,12.9,0</coordinates>
          </LinearRing>
        </outerBoundaryIs>
      </Polygon>
    </Placemark>
    <Placemark>
      <name>Polygon_54</name>
      <ExtendedData>
        <Data name="id"><value>54</value></Data>
        <Data name="category"><value>benchmark</value></Data>
      </ExtendedData>
      <Polygon>
        <outerBoundaryIs>
          <LinearRing>
            <coordinates>77.77,12.9,0 77.77199999999999,12.9,0 77.77199999999999,12.902000000000001,0 77.77,12.902000000000001,0 77.77,12.9,0</coordinates>
          </LinearRing>
        </outerBoundaryIs>
      </Polygon>
    </Placemark>
    <Placemark>
      <name>Polygon_55</name>
      <ExtendedData>
        <Data name="id"><value>55</value></Data>
        <Data name="category"><value>benchmark</value></Data>
      </ExtendedData>
      <Polygon>
        <outerBoundaryIs>
          <LinearRing>
            <coordinates>77.775,12.9,0 77.777,12.9,0 77.777,12.902000000000001,0 77.775,12.902000000000001,0 77.775,12.9,0</coordinates>
          </LinearRing>
        </outerBoundaryIs>
      </Polygon>
    </Placemark>
    <Placemark>
      <name>Polygon_56</name>
      <ExtendedData>
        <Data name="id"><value>56</value></Data>
        <Data name="category"><value>benchmark</value></Data>
      </ExtendedData>
      <Polygon>
        <outerBoundaryIs>
          <LinearRing>
            <coordinates>77.78,12.9,0 77.782,12.9,0 77.782,12.902000000000001,0 77.78,12.902000000000001,0 77.78,12.9,0</coordinates>
          </LinearRing>
        </outerBoundaryIs>
      </Polygon>
    </Placemark>
    <Placemark>
      <name>Polygon_57</name>
      <ExtendedData>
        <Data name="id"><value>57</value></Data>
        <Data name="category"><value>benchmark</value></Data>
      </ExtendedData>
      <Polygon>
        <outerBoundaryIs>
          <LinearRing>
            <coordinates>77.785,12.9,0 77.78699999999999,12.9,0 77.78699999999999,12.902000000000001,0 77.785,12.902000000000001,0 77.785,12.9,0</coordinates>
          </LinearRing>
        </outerBoundaryIs>
      </Polygon>
    </Placemark>
    <Placemark>
      <name>Polygon_58</name>
      <ExtendedData>
        <Data name="id"><value>58</value></Data>
        <Data name="category"><value>benchmark</value></Data>
      </ExtendedData>
      <Polygon>
        <outerBoundaryIs>
          <LinearRing>
            <coordinates>77.79,12.9,0 77.792,12.9,0 77.792,12.902000000000001,0 77.79,12.902000000000001,0 77.79,12.9,0</coordinates>
          </LinearRing>
        </outerBoundaryIs>
      </Polygon>
    </Placemark>
    <Placemark>
      <name>Polygon_59</name>
      <ExtendedData>
        <Data name="id"><value>59</value></Data>
        <Data name="category"><value>benchmark</value></Data>
      </ExtendedData>
      <Polygon>
        <outerBoundaryIs>
          <LinearRing>
            <coordinates>77.795,12.9,0 77.797,12.9,0 77.797,12.902000000000001,0 77.795,12.902000000000001,0 77.795,12.9,0</coordinates>
          </LinearRing>
        </outerBoundaryIs>
      </Polygon>
    </Placemark>
    <Placemark>
      <name>Polygon_60</name>
      <ExtendedData>
        <Data name="id"><value>60</value></Data>
        <Data name="category"><value>benchmark</value></Data>
      </ExtendedData>
      <Polygon>
        <outerBoundaryIs>
          <LinearRing>
            <coordinates>77.8,12.9,0 77.80199999999999,12.9,0 77.80199999999999,12.902000000000001,0 77.8,12.902000000000001,0 77.8,12.9,0</coordinates>
          </LinearRing>
        </outerBoundaryIs>
      </Polygon>
    </Placemark>
    <Placemark>
      <name>Polygon_61</name>
      <ExtendedData>
        <Data name="id"><value>61</value></Data>
        <Data name="category"><value>benchmark</value></Data>
      </ExtendedData>
      <Polygon>
        <outerBoundaryIs>
          <LinearRing>
            <coordinates>77.805,12.9,0 77.807,12.9,0 77.807,12.902000000000001,0 77.805,12.902000000000001,0 77.805,12.9,0</coordinates>
          </LinearRing>
        </outerBoundaryIs>
      </Polygon>
    </Placemark>
    <Placemark>
      <name>Polygon_62</name>
      <ExtendedData>
        <Data name="id"><value>62</value></Data>
        <Data name="category"><value>benchmark</value></Data>
      </ExtendedData>
      <Polygon>
        <outerBoundaryIs>
          <LinearRing>
            <coordinates>77.81,12.9,0 77.812,12.9,0 77.812,12.902000000000001,0 77.81,12.902000000000001,0 77.81,12.9,0</coordinates>
          </LinearRing>
        </outerBoundaryIs>
      </Polygon>
    </Placemark>
    <Placemark>
      <name>Polygon_63</name>
      <ExtendedData>
        <Data name="id"><value>63</value></Data>
        <Data name="category"><value>benchmark</value></Data>
      </ExtendedData>
      <Polygon>
        <outerBoundaryIs>
          <LinearRing>
            <coordinates>77.815,12.9,0 77.817,12.9,0 77.817,12.902000000000001,0 77.815,12.902000000000001,0 77.815,12.9,0</coordinates>
          </LinearRing>
        </outerBoundaryIs>
      </Polygon>
    </Placemark>
    <Placemark>
      <name>Polygon_64</name>
      <ExtendedData>
        <Data name="id"><value>64</value></Data>
        <Data name="category"><value>benchmark</value></Data>
      </ExtendedData>
      <Polygon>
        <outerBoundaryIs>
          <LinearRing>
            <coordinates>77.82,12.9,0 77.82199999999999,12.9,0 77.82199999999999,12.902000000000001,0 77.82,12.902000000000001,0 77.82,12.9,0</coordinates>
          </LinearRing>
        </outerBoundaryIs>
      </Polygon>
    </Placemark>
    <Placemark>
      <name>Polygon_65</name>
      <ExtendedData>
        <Data name="id"><value>65</value></Data>
        <Data name="category"><value>benchmark</value></Data>
      </ExtendedData>
      <Polygon>
        <outerBoundaryIs>
          <LinearRing>
            <coordinates>77.825,12.9,0 77.827,12.9,0 77.827,12.902000000000001,0 77.825,12.902000000000001,0 77.825,12.9,0</coordinates>
          </LinearRing>
        </outerBoundaryIs>
      </Polygon>
    </Placemark>
    <Placemark>
      <name>Polygon_66</name>
      <ExtendedData>
        <Data name="id"><value>66</value></Data>
        <Data name="category"><value>benchmark</value></Data>
      </ExtendedData>
      <Polygon>
        <outerBoundaryIs>
          <LinearRing>
            <coordinates>77.83,12.9,0 77.832,12.9,0 77.832,12.902000000000001,0 77.83,12.902000000000001,0 77.83,12.9,0</coordinates>
          </LinearRing>
        </outerBoundaryIs>
      </Polygon>
    </Placemark>
    <Placemark>
      <name>Polygon_67</name>
      <ExtendedData>
        <Data name="id"><value>67</value></Data>
        <Data name="category"><value>benchmark</value></Data>
      </ExtendedData>
      <Polygon>
        <outerBoundaryIs>
          <LinearRing>
            <coordinates>77.835,12.9,0 77.83699999999999,12.9,0 77.83699999999999,12.902000000000001,0 77.835,12.902000000000001,0 77.835,12.9,0</coordinates>
          </LinearRing>
        </outerBoundaryIs>
      </Polygon>
    </Placemark>
    <Placemark>
      <name>Polygon_68</name>
      <ExtendedData>
        <Data name="id"><value>68</value></Data>
        <Data name="category"><value>benchmark</value></Data>
      </ExtendedData>
      <Polygon>
        <outerBoundaryIs>
          <LinearRing>
            <coordinates>77.84,12.9,0 77.842,12.9,0 77.842,12.902000000000001,0 77.84,12.902000000000001,0 77.84,12.9,0</coordinates>
          </LinearRing>
        </outerBoundaryIs>
      </Polygon>
    </Placemark>
    <Placemark>
      <name>Polygon_69</name>
      <ExtendedData>
        <Data name="id"><value>69</value></Data>
        <Data name="category"><value>benchmark</value></Data>
      </ExtendedData>
      <Polygon>
        <outerBoundaryIs>
          <LinearRing>
            <coordinates>77.845,12.9,0 77.847,12.9,0 77.847,12.902000000000001,0 77.845,12.902000000000001,0 77.845,12.9,0</coordinates>
          </LinearRing>
        </outerBoundaryIs>
      </Polygon>
    </Placemark>
    <Placemark>
      <name>Polygon_70</name>
      <ExtendedData>
        <Data name="id"><value>70</value></Data>
        <Data name="category"><value>benchmark</value></Data>
      </ExtendedData>
      <Polygon>
        <outerBoundaryIs>
          <LinearRing>
            <coordinates>77.85,12.9,0 77.85199999999999,12.9,0 77.85199999999999,12.902000000000001,0 77.85,12.902000000000001,0 77.85,12.9,0</coordinates>
          </LinearRing>
        </outerBoundaryIs>
      </Polygon>
    </Placemark>
    <Placemark>
      <name>Polygon_71</name>
      <ExtendedData>
        <Data name="id"><value>71</value></Data>
        <Data name="category"><value>benchmark</value></Data>
      </ExtendedData>
      <Polygon>
        <outerBoundaryIs>
          <LinearRing>
            <coordinates>77.855,12.9,0 77.857,12.9,0 77.857,12.902000000000001,0 77.855,12.902000000000001,0 77.855,12.9,0</coordinates>
          </LinearRing>
        </outerBoundaryIs>
      </Polygon>
    </Placemark>
    <Placemark>
      <name>Polygon_72</name>
      <ExtendedData>
        <Data name="id"><value>72</value></Data>
        <Data name="category"><value>benchmark</value></Data>
      </ExtendedData>
      <Polygon>
        <outerBoundaryIs>
          <LinearRing>
            <coordinates>77.86,12.9,0 77.862,12.9,0 77.862,12.902000000000001,0 77.86,12.902000000000001,0 77.86,12.9,0</coordinates>
          </LinearRing>
        </outerBoundaryIs>
      </Polygon>
    </Placemark>
    <Placemark>
      <name>Polygon_73</name>
      <ExtendedData>
        <Data name="id"><value>73</value></Data>
        <Data name="category"><value>benchmark</value></Data>
      </ExtendedData>
      <Polygon>
        <outerBoundaryIs>
          <LinearRing>
            <coordinates>77.865,12.9,0 77.86699999999999,12.9,0 77.86699999999999,12.902000000000001,0 77.865,12.902000000000001,0 77.865,12.9,0</coordinates>
          </LinearRing>
        </outerBoundaryIs>
      </Polygon>
    </Placemark>
    <Placemark>
      <name>Polygon_74</name>
      <ExtendedData>
        <Data name="id"><value>74</value></Data>
        <Data name="category"><value>benchmark</value></Data>
      </ExtendedData>
      <Polygon>
        <outerBoundaryIs>
          <LinearRing>
            <coordinates>77.87,12.9,0 77.872,12.9,0 77.872,12.902000000000001,0 77.87,12.902000000000001,0 77.87,12.9,0</coordinates>
          </LinearRing>
        </outerBoundaryIs>
      </Polygon>
    </Placemark>
    <Placemark>
      <name>Polygon_75</name>
      <ExtendedData>
        <Data name="id"><value>75</value></Data>
        <Data name="category"><value>benchmark</value></Data>
      </ExtendedData>
      <Polygon>
        <outerBoundaryIs>
          <LinearRing>
            <coordinates>77.875,12.9,0 77.877,12.9,0 77.877,12.902000000000001,0 77.875,12.902000000000001,0 77.875,12.9,0</coordinates>
          </LinearRing>
        </outerBoundaryIs>
      </Polygon>
    </Placemark>
    <Placemark>
      <name>Polygon_76</name>
      <ExtendedData>
        <Data name="id"><value>76</value></Data>
        <Data name="category"><value>benchmark</value></Data>
      </ExtendedData>
      <Polygon>
        <outerBoundaryIs>
          <LinearRing>
            <coordinates>77.88,12.9,0 77.88199999999999,12.9,0 77.88199999999999,12.902000000000001,0 77.88,12.902000000000001,0 77.88,12.9,0</coordinates>
          </LinearRing>
        </outerBoundaryIs>
      </Polygon>
    </Placemark>
    <Placemark>
      <name>Polygon_77</name>
      <ExtendedData>
        <Data name="id"><value>77</value></Data>
        <Data name="category"><value>benchmark</value></Data>
      </ExtendedData>
      <Polygon>
        <outerBoundaryIs>
          <LinearRing>
            <coordinates>77.885,12.9,0 77.887,12.9,0 77.887,12.902000000000001,0 77.885,12.902000000000001,0 77.885,12.9,0</coordinates>
          </LinearRing>
        </outerBoundaryIs>
      </Polygon>
    </Placemark>
    <Placemark>
      <name>Polygon_78</name>
      <ExtendedData>
        <Data name="id"><value>78</value></Data>
        <Data name="category"><value>benchmark</value></Data>
      </ExtendedData>
      <Polygon>
        <outerBoundaryIs>
          <LinearRing>
            <coordinates>77.89,12.9,0 77.892,12.9,0 77.892,12.902000000000001,0 77.89,12.902000000000001,0 77.89,12.9,0</coordinates>
          </LinearRing>
        </outerBoundaryIs>
      </Polygon>
    </Placemark>
    <Placemark>
      <name>Polygon_79</name>
      <ExtendedData>
        <Data name="id"><value>79</value></Data>
        <Data name="category"><value>benchmark</value></Data>
      </ExtendedData>
      <Polygon>
        <outerBoundaryIs>
          <LinearRing>
            <coordinates>77.895,12.9,0 77.89699999999999,12.9,0 77.89699999999999,12.902000000000001,0 77.895,12.902000000000001,0 77.895,12.9,0</coordinates>
          </LinearRing>
        </outerBoundaryIs>
      </Polygon>
    </Placemark>
    <Placemark>
      <name>Polygon_80</name>
      <ExtendedData>
        <Data name="id"><value>80</value></Data>
        <Data name="category"><value>benchmark</value></Data>
      </ExtendedData>
      <Polygon>
        <outerBoundaryIs>
          <LinearRing>
            <coordinates>77.9,12.9,0 77.902,12.9,0 77.902,12.902000000000001,0 77.9,12.902000000000001,0 77.9,12.9,0</coordinates>
          </LinearRing>
        </outerBoundaryIs>
      </Polygon>
    </Placemark>
    <Placemark>
      <name>Polygon_81</name>
      <ExtendedData>
        <Data name="id"><value>81</value></Data>
        <Data name="category"><value>benchmark</value></Data>
      </ExtendedData>
      <Polygon>
        <outerBoundaryIs>
          <LinearRing>
            <coordinates>77.905,12.9,0 77.907,12.9,0 77.907,12.902000000000001,0 77.905,12.902000000000001,0 77.905,12.9,0</coordinates>
          </LinearRing>
        </outerBoundaryIs>
      </Polygon>
    </Placemark>
    <Placemark>
      <name>Polygon_82</name>
      <ExtendedData>
        <Data name="id"><value>82</value></Data>
        <Data name="category"><value>benchmark</value></Data>
      </ExtendedData>
      <Polygon>
        <outerBoundaryIs>
          <LinearRing>
            <coordinates>77.91,12.9,0 77.91199999999999,12.9,0 77.91199999999999,12.902000000000001,0 77.91,12.902000000000001,0 77.91,12.9,0</coordinates>
          </LinearRing>
        </outerBoundaryIs>
      </Polygon>
    </Placemark>
    <Placemark>
      <name>Polygon_83</name>
      <ExtendedData>
        <Data name="id"><value>83</value></Data>
        <Data name="category"><value>benchmark</value></Data>
      </ExtendedData>
      <Polygon>
        <outerBoundaryIs>
          <LinearRing>
            <coordinates>77.915,12.9,0 77.917,12.9,0 77.917,12.902000000000001,0 77.915,12.902000000000001,0 77.915,12.9,0</coordinates>
          </LinearRing>
        </outerBoundaryIs>
      </Polygon>
    </Placemark>
    <Placemark>
      <name>Polygon_84</name>
      <ExtendedData>
        <Data name="id"><value>84</value></Data>
        <Data name="category"><value>benchmark</value></Data>
      </ExtendedData>
      <Polygon>
        <outerBoundaryIs>
          <LinearRing>
            <coordinates>77.92,12.9,0 77.922,12.9,0 77.922,12.902000000000001,0 77.92,12.902000000000001,0 77.92,12.9,0</coordinates>
          </LinearRing>
        </outerBoundaryIs>
      </Polygon>
    </Placemark>
    <Placemark>
      <name>Polygon_85</name>
      <ExtendedData>
        <Data name="id"><value>85</value></Data>
        <Data name="category"><value>benchmark</value></Data>
      </ExtendedData>
      <Polygon>
        <outerBoundaryIs>
          <LinearRing>
            <coordinates>77.925,12.9,0 77.92699999999999,12.9,0 77.92699999999999,12.902000000000001,0 77.925,12.902000000000001,0 77.925,12.9,0</coordinates>
          </LinearRing>
        </outerBoundaryIs>
      </Polygon>
    </Placemark>
    <Placemark>
      <name>Polygon_86</name>
      <ExtendedData>
        <Data name="id"><value>86</value></Data>
        <Data name="category"><value>benchmark</value></Data>
      </ExtendedData>
      <Polygon>
        <outerBoundaryIs>
          <LinearRing>
            <coordinates>77.93,12.9,0 77.932,12.9,0 77.932,12.902000000000001,0 77.93,12.902000000000001,0 77.93,12.9,0</coordinates>
          </LinearRing>
        </outerBoundaryIs>
      </Polygon>
    </Placemark>
    <Placemark>
      <name>Polygon_87</name>
      <ExtendedData>
        <Data name="id"><value>87</value></Data>
        <Data name="category"><value>benchmark</value></Data>
      </ExtendedData>
      <Polygon>
        <outerBoundaryIs>
          <LinearRing>
            <coordinates>77.935,12.9,0 77.937,12.9,0 77.937,12.902000000000001,0 77.935,12.902000000000001,0 77.935,12.9,0</coordinates>
          </LinearRing>
        </outerBoundaryIs>
      </Polygon>
    </Placemark>
    <Placemark>
      <name>Polygon_88</name>
      <ExtendedData>
        <Data name="id"><value>88</value></Data>
        <Data name="category"><value>benchmark</value></Data>
      </ExtendedData>
      <Polygon>
        <outerBoundaryIs>
          <LinearRing>
            <coordinates>77.94,12.9,0 77.942,12.9,0 77.942,12.902000000000001,0 77.94,12.902000000000001,0 77.94,12.9,0</coordinates>
          </LinearRing>
        </outerBoundaryIs>
      </Polygon>
    </Placemark>
    <Placemark>
      <name>Polygon_89</name>
      <ExtendedData>
        <Data name="id"><value>89</value></Data>
        <Data name="category"><value>benchmark</value></Data>
      </ExtendedData>
      <Polygon>
        <outerBoundaryIs>
          <LinearRing>
            <coordinates>77.945,12.9,0 77.94699999999999,12.9,0 77.94699999999999,12.902000000000001,0 77.945,12.902000000000001,0 77.945,12.9,0</coordinates>
          </LinearRing>
        </outerBoundaryIs>
      </Polygon>
    </Placemark>
    <Placemark>
      <name>Polygon_90</name>
      <ExtendedData>
        <Data name="id"><value>90</value></Data>
        <Data name="category"><value>benchmark</value></Data>
      </ExtendedData>
      <Polygon>
        <outerBoundaryIs>
          <LinearRing>
            <coordinates>77.95,12.9,0 77.952,12.9,0 77.952,12.902000000000001,0 77.95,12.902000000000001,0 77.95,12.9,0</coordinates>
          </LinearRing>
        </outerBoundaryIs>
      </Polygon>
    </Placemark>
    <Placemark>
      <name>Polygon_91</name>
      <ExtendedData>
        <Data name="id"><value>91</value></Data>
        <Data name="category"><value>benchmark</value></Data>
      </ExtendedData>
      <Polygon>
        <outerBoundaryIs>
          <LinearRing>
            <coordinates>77.955,12.9,0 77.957,12.9,0 77.957,12.902000000000001,0 77.955,12.902000000000001,0 77.955,12.9,0</coordinates>
          </LinearRing>
        </outerBoundaryIs>
      </Polygon>
    </Placemark>
    <Placemark>
      <name>Polygon_92</name>
      <ExtendedData>
        <Data name="id"><value>92</value></Data>
        <Data name="category"><value>benchmark</value></Data>
      </ExtendedData>
      <Polygon>
        <outerBoundaryIs>
          <LinearRing>
            <coordinates>77.96,12.9,0 77.96199999999999,12.9,0 77.96199999999999,12.902000000000001,0 77.96,12.902000000000001,0 77.96,12.9,0</coordinates>
          </LinearRing>
        </outerBoundaryIs>
      </Polygon>
    </Placemark>
    <Placemark>
      <name>Polygon_93</name>
      <ExtendedData>
        <Data name="id"><value>93</value></Data>
        <Data name="category"><value>benchmark</value></Data>
      </ExtendedData>
      <Polygon>
        <outerBoundaryIs>
          <LinearRing>
            <coordinates>77.965,12.9,0 77.967,12.9,0 77.967,12.902000000000001,0 77.965,12.902000000000001,0 77.965,12.9,0</coordinates>
          </LinearRing>
        </outerBoundaryIs>
      </Polygon>
    </Placemark>
    <Placemark>
      <name>Polygon_94</name>
      <ExtendedData>
        <Data name="id"><value>94</value></Data>
        <Data name="category"><value>benchmark</value></Data>
      </ExtendedData>
      <Polygon>
        <outerBoundaryIs>
          <LinearRing>
            <coordinates>77.97,12.9,0 77.972,12.9,0 77.972,12.902000000000001,0 77.97,12.902000000000001,0 77.97,12.9,0</coordinates>
          </LinearRing>
        </outerBoundaryIs>
      </Polygon>
    </Placemark>
    <Placemark>
      <name>Polygon_95</name>
      <ExtendedData>
        <Data name="id"><value>95</value></Data>
        <Data name="category"><value>benchmark</value></Data>
      </ExtendedData>
      <Polygon>
        <outerBoundaryIs>
          <LinearRing>
            <coordinates>77.975,12.9,0 77.97699999999999,12.9,0 77.97699999999999,12.902000000000001,0 77.975,12.902000000000001,0 77.975,12.9,0</coordinates>
          </LinearRing>
        </outerBoundaryIs>
      </Polygon>
    </Placemark>
    <Placemark>
      <name>Polygon_96</name>
      <ExtendedData>
        <Data name="id"><value>96</value></Data>
        <Data name="category"><value>benchmark</value></Data>
      </ExtendedData>
      <Polygon>
        <outerBoundaryIs>
          <LinearRing>
            <coordinates>77.98,12.9,0 77.982,12.9,0 77.982,12.902000000000001,0 77.98,12.902000000000001,0 77.98,12.9,0</coordinates>
          </LinearRing>
        </outerBoundaryIs>
      </Polygon>
    </Placemark>
    <Placemark>
      <name>Polygon_97</name>
      <ExtendedData>
        <Data name="id"><value>97</value></Data>
        <Data name="category"><value>benchmark</value></Data>
      </ExtendedData>
      <Polygon>
        <outerBoundaryIs>
          <LinearRing>
            <coordinates>77.985,12.9,0 77.987,12.9,0 77.987,12.902000000000001,0 77.985,12.902000000000001,0 77.985,12.9,0</coordinates>
          </LinearRing>
        </outerBoundaryIs>
      </Polygon>
    </Placemark>
    <Placemark>
      <name>Polygon_98</name>
      <ExtendedData>
        <Data name="id"><value>98</value></Data>
        <Data name="category"><value>benchmark</value></Data>
      </ExtendedData>
      <Polygon>
        <outerBoundaryIs>
          <LinearRing>
            <coordinates>77.99,12.9,0 77.99199999999999,12.9,0 77.99199999999999,12.902000000000001,0 77.99,12.902000000000001,0 77.99,12.9,0</coordinates>
          </LinearRing>
        </outerBoundaryIs>
      </Polygon>
    </Placemark>
    <Placemark>
      <name>Polygon_99</name>
      <ExtendedData>
        <Data name="id"><value>99</value></Data>
        <Data name="category"><value>benchmark</value></Data>
      </ExtendedData>
      <Polygon>
        <outerBoundaryIs>
          <LinearRing>
            <coordinates>77.995,12.9,0 77.997,12.9,0 77.997,12.902000000000001,0 77.995,12.902000000000001,0 77.995,12.9,0</coordinates>
          </LinearRing>
        </outerBoundaryIs>
      </Polygon>
    </Placemark>
  </Document>
</kml>